{"type":"FeatureCollection","features":[{"type":"Feature","properties":{"nome":"Astoria-Ditmars Blvd","linhas":"N W"},"geometry":{"type":"Point","coordinates":[-73.91203,40.77504]}},{"type":"Feature","properties":{"nome":"Astoria Blvd","linhas":"N W"},"geometry":{"type":"Point","coordinates":[-73.91784,40.77026]}},{"type":"Feature","properties":{"nome":"30 Av","linhas":"N W"},"geometry":{"type":"Point","coordinates":[-73.92148,40.76678]}},{"type":"Feature","properties":{"nome":"Broadway","linhas":"N W"},"geometry":{"type":"Point","coordinates":[-73.92551,40.76182]}},{"type":"Feature","properties":{"nome":"36 Av","linhas":"N W"},"geometry":{"type":"Point","coordinates":[-73.92957,40.7568]}},{"type":"Feature","properties":{"nome":"39 Av-Dutch Kills","linhas":"N W"},"geometry":{"type":"Point","coordinates":[-73.93276,40.75288]}},{"type":"Feature","properties":{"nome":"5 Av/59 St","linhas":"N R W"},"geometry":{"type":"Point","coordinates":[-73.97335,40.76481]}},{"type":"Feature","properties":{"nome":"57 St-7 Av","linhas":"N Q R W"},"geometry":{"type":"Point","coordinates":[-73.98066,40.76466]}},{"type":"Feature","properties":{"nome":"49 St","linhas":"N R W"},"geometry":{"type":"Point","coordinates":[-73.98414,40.7599]}},{"type":"Feature","properties":{"nome":"28 St","linhas":"R W"},"geometry":{"type":"Point","coordinates":[-73.98869,40.74549]}},{"type":"Feature","properties":{"nome":"23 St","linhas":"R W"},"geometry":{"type":"Point","coordinates":[-73.98934,40.7413]}},{"type":"Feature","properties":{"nome":"8 St-NYU","linhas":"R W"},"geometry":{"type":"Point","coordinates":[-73.99263,40.73033]}},{"type":"Feature","properties":{"nome":"Prince St","linhas":"R W"},"geometry":{"type":"Point","coordinates":[-73.9977,40.72433]}},{"type":"Feature","properties":{"nome":"City Hall","linhas":"R W"},"geometry":{"type":"Point","coordinates":[-74.00698,40.71328]}},{"type":"Feature","properties":{"nome":"Rector St","linhas":"R W"},"geometry":{"type":"Point","coordinates":[-74.01334,40.70722]}},{"type":"Feature","properties":{"nome":"DeKalb Av","linhas":"B Q R"},"geometry":{"type":"Point","coordinates":[-73.98182,40.69064]}},{"type":"Feature","properties":{"nome":"Union St","linhas":"R"},"geometry":{"type":"Point","coordinates":[-73.98311,40.67732]}},{"type":"Feature","properties":{"nome":"Prospect Av","linhas":"R"},"geometry":{"type":"Point","coordinates":[-73.99287,40.66541]}},{"type":"Feature","properties":{"nome":"25 St","linhas":"R"},"geometry":{"type":"Point","coordinates":[-73.99809,40.6604]}},{"type":"Feature","properties":{"nome":"36 St","linhas":"D N R"},"geometry":{"type":"Point","coordinates":[-74.00355,40.65514]}},{"type":"Feature","properties":{"nome":"45 St","linhas":"R"},"geometry":{"type":"Point","coordinates":[-74.01001,40.64894]}},{"type":"Feature","properties":{"nome":"53 St","linhas":"R"},"geometry":{"type":"Point","coordinates":[-74.01403,40.64507]}},{"type":"Feature","properties":{"nome":"59 St","linhas":"N R"},"geometry":{"type":"Point","coordinates":[-74.01788,40.64136]}},{"type":"Feature","properties":{"nome":"Bay Ridge Av","linhas":"R"},"geometry":{"type":"Point","coordinates":[-74.02338,40.63497]}},{"type":"Feature","properties":{"nome":"77 St","linhas":"R"},"geometry":{"type":"Point","coordinates":[-74.02551,40.62974]}},{"type":"Feature","properties":{"nome":"86 St","linhas":"R"},"geometry":{"type":"Point","coordinates":[-74.0284,40.62269]}},{"type":"Feature","properties":{"nome":"Bay Ridge-95 St","linhas":"R"},"geometry":{"type":"Point","coordinates":[-74.03088,40.61662]}},{"type":"Feature","properties":{"nome":"7 Av","linhas":"B Q"},"geometry":{"type":"Point","coordinates":[-73.97237,40.67705]}},{"type":"Feature","properties":{"nome":"Prospect Park","linhas":"B Q S"},"geometry":{"type":"Point","coordinates":[-73.96225,40.66161]}},{"type":"Feature","properties":{"nome":"Parkside Av","linhas":"Q"},"geometry":{"type":"Point","coordinates":[-73.96149,40.65529]}},{"type":"Feature","properties":{"nome":"Church Av","linhas":"B Q"},"geometry":{"type":"Point","coordinates":[-73.96298,40.65053]}},{"type":"Feature","properties":{"nome":"Beverley Rd","linhas":"Q"},"geometry":{"type":"Point","coordinates":[-73.96449,40.64403]}},{"type":"Feature","properties":{"nome":"Cortelyou Rd","linhas":"Q"},"geometry":{"type":"Point","coordinates":[-73.96389,40.64093]}},{"type":"Feature","properties":{"nome":"Newkirk Plaza","linhas":"B Q"},"geometry":{"type":"Point","coordinates":[-73.96279,40.63508]}},{"type":"Feature","properties":{"nome":"Avenue H","linhas":"Q"},"geometry":{"type":"Point","coordinates":[-73.96164,40.62927]}},{"type":"Feature","properties":{"nome":"Avenue J","linhas":"Q"},"geometry":{"type":"Point","coordinates":[-73.9608,40.62504]}},{"type":"Feature","properties":{"nome":"Avenue M","linhas":"Q"},"geometry":{"type":"Point","coordinates":[-73.9594,40.61762]}},{"type":"Feature","properties":{"nome":"Kings Hwy","linhas":"B Q"},"geometry":{"type":"Point","coordinates":[-73.95773,40.60867]}},{"type":"Feature","properties":{"nome":"Avenue U","linhas":"Q"},"geometry":{"type":"Point","coordinates":[-73.95593,40.5993]}},{"type":"Feature","properties":{"nome":"Neck Rd","linhas":"Q"},"geometry":{"type":"Point","coordinates":[-73.95516,40.59525]}},{"type":"Feature","properties":{"nome":"Sheepshead Bay","linhas":"B Q"},"geometry":{"type":"Point","coordinates":[-73.95416,40.5869]}},{"type":"Feature","properties":{"nome":"Brighton Beach","linhas":"B Q"},"geometry":{"type":"Point","coordinates":[-73.96138,40.57762]}},{"type":"Feature","properties":{"nome":"Ocean Pkwy","linhas":"Q"},"geometry":{"type":"Point","coordinates":[-73.9685,40.57631]}},{"type":"Feature","properties":{"nome":"W 8 St-NY Aquarium","linhas":"F Q"},"geometry":{"type":"Point","coordinates":[-73.97594,40.57613]}},{"type":"Feature","properties":{"nome":"Coney Island-Stillwell Av","linhas":"D F N Q"},"geometry":{"type":"Point","coordinates":[-73.98123,40.57742]}},{"type":"Feature","properties":{"nome":"9 Av","linhas":"D"},"geometry":{"type":"Point","coordinates":[-73.99432,40.64629]}},{"type":"Feature","properties":{"nome":"Fort Hamilton Pkwy","linhas":"D"},"geometry":{"type":"Point","coordinates":[-73.9943,40.64091]}},{"type":"Feature","properties":{"nome":"50 St","linhas":"D"},"geometry":{"type":"Point","coordinates":[-73.99479,40.63626]}},{"type":"Feature","properties":{"nome":"55 St","linhas":"D"},"geometry":{"type":"Point","coordinates":[-73.99548,40.63144]}},{"type":"Feature","properties":{"nome":"71 St","linhas":"D"},"geometry":{"type":"Point","coordinates":[-73.99886,40.61959]}},{"type":"Feature","properties":{"nome":"79 St","linhas":"D"},"geometry":{"type":"Point","coordinates":[-74.00061,40.6135]}},{"type":"Feature","properties":{"nome":"18 Av","linhas":"D"},"geometry":{"type":"Point","coordinates":[-74.00174,40.60795]}},{"type":"Feature","properties":{"nome":"20 Av","linhas":"D"},"geometry":{"type":"Point","coordinates":[-73.99817,40.60456]}},{"type":"Feature","properties":{"nome":"Bay Pkwy","linhas":"D"},"geometry":{"type":"Point","coordinates":[-73.99373,40.60187]}},{"type":"Feature","properties":{"nome":"25 Av","linhas":"D"},"geometry":{"type":"Point","coordinates":[-73.98683,40.5977]}},{"type":"Feature","properties":{"nome":"Bay 50 St","linhas":"D"},"geometry":{"type":"Point","coordinates":[-73.98377,40.58884]}},{"type":"Feature","properties":{"nome":"8 Av","linhas":"N"},"geometry":{"type":"Point","coordinates":[-74.01172,40.63506]}},{"type":"Feature","properties":{"nome":"Fort Hamilton Pkwy","linhas":"N"},"geometry":{"type":"Point","coordinates":[-74.00535,40.63139]}},{"type":"Feature","properties":{"nome":"18 Av","linhas":"N"},"geometry":{"type":"Point","coordinates":[-73.99041,40.62067]}},{"type":"Feature","properties":{"nome":"20 Av","linhas":"N"},"geometry":{"type":"Point","coordinates":[-73.98503,40.61741]}},{"type":"Feature","properties":{"nome":"Bay Pkwy","linhas":"N"},"geometry":{"type":"Point","coordinates":[-73.98185,40.61181]}},{"type":"Feature","properties":{"nome":"Kings Hwy","linhas":"N"},"geometry":{"type":"Point","coordinates":[-73.98035,40.60392]}},{"type":"Feature","properties":{"nome":"Avenue U","linhas":"N"},"geometry":{"type":"Point","coordinates":[-73.97914,40.59747]}},{"type":"Feature","properties":{"nome":"86 St","linhas":"N"},"geometry":{"type":"Point","coordinates":[-73.97823,40.59272]}},{"type":"Feature","properties":{"nome":"121 St","linhas":"J Z"},"geometry":{"type":"Point","coordinates":[-73.82829,40.70049]}},{"type":"Feature","properties":{"nome":"111 St","linhas":"J"},"geometry":{"type":"Point","coordinates":[-73.83634,40.69742]}},{"type":"Feature","properties":{"nome":"104 St","linhas":"J Z"},"geometry":{"type":"Point","coordinates":[-73.84433,40.69518]}},{"type":"Feature","properties":{"nome":"Woodhaven Blvd","linhas":"J Z"},"geometry":{"type":"Point","coordinates":[-73.85158,40.69388]}},{"type":"Feature","properties":{"nome":"85 St-Forest Pkwy","linhas":"J"},"geometry":{"type":"Point","coordinates":[-73.86001,40.69244]}},{"type":"Feature","properties":{"nome":"75 St-Elderts Ln","linhas":"J Z"},"geometry":{"type":"Point","coordinates":[-73.86714,40.69132]}},{"type":"Feature","properties":{"nome":"Cypress Hills","linhas":"J"},"geometry":{"type":"Point","coordinates":[-73.87255,40.68994]}},{"type":"Feature","properties":{"nome":"Crescent St","linhas":"J Z"},"geometry":{"type":"Point","coordinates":[-73.87378,40.68319]}},{"type":"Feature","properties":{"nome":"Norwood Av","linhas":"J Z"},"geometry":{"type":"Point","coordinates":[-73.88004,40.68141]}},{"type":"Feature","properties":{"nome":"Cleveland St","linhas":"J"},"geometry":{"type":"Point","coordinates":[-73.88464,40.67995]}},{"type":"Feature","properties":{"nome":"Van Siclen Av","linhas":"J Z"},"geometry":{"type":"Point","coordinates":[-73.89169,40.67802]}},{"type":"Feature","properties":{"nome":"Alabama Av","linhas":"J Z"},"geometry":{"type":"Point","coordinates":[-73.89865,40.67699]}},{"type":"Feature","properties":{"nome":"Chauncey St","linhas":"J Z"},"geometry":{"type":"Point","coordinates":[-73.91046,40.68289]}},{"type":"Feature","properties":{"nome":"Halsey St","linhas":"J"},"geometry":{"type":"Point","coordinates":[-73.91656,40.68637]}},{"type":"Feature","properties":{"nome":"Gates Av","linhas":"J Z"},"geometry":{"type":"Point","coordinates":[-73.92227,40.68963]}},{"type":"Feature","properties":{"nome":"Kosciuszko St","linhas":"J"},"geometry":{"type":"Point","coordinates":[-73.92881,40.69334]}},{"type":"Feature","properties":{"nome":"Myrtle Av","linhas":"J M Z"},"geometry":{"type":"Point","coordinates":[-73.93566,40.69721]}},{"type":"Feature","properties":{"nome":"Flushing Av","linhas":"J M"},"geometry":{"type":"Point","coordinates":[-73.94113,40.70026]}},{"type":"Feature","properties":{"nome":"Lorimer St","linhas":"J M"},"geometry":{"type":"Point","coordinates":[-73.94741,40.70387]}},{"type":"Feature","properties":{"nome":"Hewes St","linhas":"J M"},"geometry":{"type":"Point","coordinates":[-73.95343,40.70687]}},{"type":"Feature","properties":{"nome":"Marcy Av","linhas":"J M Z"},"geometry":{"type":"Point","coordinates":[-73.95776,40.70836]}},{"type":"Feature","properties":{"nome":"Bowery","linhas":"J Z"},"geometry":{"type":"Point","coordinates":[-73.99392,40.72028]}},{"type":"Feature","properties":{"nome":"Broad St","linhas":"J Z"},"geometry":{"type":"Point","coordinates":[-74.01106,40.70648]}},{"type":"Feature","properties":{"nome":"Middle Village-Metropolitan Av","linhas":"M"},"geometry":{"type":"Point","coordinates":[-73.8896,40.7114]}},{"type":"Feature","properties":{"nome":"Fresh Pond Rd","linhas":"M"},"geometry":{"type":"Point","coordinates":[-73.89588,40.70619]}},{"type":"Feature","properties":{"nome":"Forest Av","linhas":"M"},"geometry":{"type":"Point","coordinates":[-73.90308,40.70442]}},{"type":"Feature","properties":{"nome":"Seneca Av","linhas":"M"},"geometry":{"type":"Point","coordinates":[-73.90774,40.70276]}},{"type":"Feature","properties":{"nome":"Knickerbocker Av","linhas":"M"},"geometry":{"type":"Point","coordinates":[-73.91971,40.69866]}},{"type":"Feature","properties":{"nome":"Central Av","linhas":"M"},"geometry":{"type":"Point","coordinates":[-73.9274,40.69786]}},{"type":"Feature","properties":{"nome":"3 Av","linhas":"L"},"geometry":{"type":"Point","coordinates":[-73.98612,40.73285]}},{"type":"Feature","properties":{"nome":"1 Av","linhas":"L"},"geometry":{"type":"Point","coordinates":[-73.98163,40.73095]}},{"type":"Feature","properties":{"nome":"Bedford Av","linhas":"L"},"geometry":{"type":"Point","coordinates":[-73.95687,40.7173]}},{"type":"Feature","properties":{"nome":"Graham Av","linhas":"L"},"geometry":{"type":"Point","coordinates":[-73.94405,40.71457]}},{"type":"Feature","properties":{"nome":"Grand St","linhas":"L"},"geometry":{"type":"Point","coordinates":[-73.94067,40.71193]}},{"type":"Feature","properties":{"nome":"Montrose Av","linhas":"L"},"geometry":{"type":"Point","coordinates":[-73.93985,40.70774]}},{"type":"Feature","properties":{"nome":"Morgan Av","linhas":"L"},"geometry":{"type":"Point","coordinates":[-73.93315,40.70615]}},{"type":"Feature","properties":{"nome":"Jefferson St","linhas":"L"},"geometry":{"type":"Point","coordinates":[-73.92291,40.70661]}},{"type":"Feature","properties":{"nome":"DeKalb Av","linhas":"L"},"geometry":{"type":"Point","coordinates":[-73.91842,40.70381]}},{"type":"Feature","properties":{"nome":"Halsey St","linhas":"L"},"geometry":{"type":"Point","coordinates":[-73.90408,40.6956]}},{"type":"Feature","properties":{"nome":"Wilson Av","linhas":"L"},"geometry":{"type":"Point","coordinates":[-73.90405,40.68876]}},{"type":"Feature","properties":{"nome":"Bushwick Av-Aberdeen St","linhas":"L"},"geometry":{"type":"Point","coordinates":[-73.90525,40.68283]}},{"type":"Feature","properties":{"nome":"Atlantic Av","linhas":"L"},"geometry":{"type":"Point","coordinates":[-73.9031,40.67535]}},{"type":"Feature","properties":{"nome":"Sutter Av","linhas":"L"},"geometry":{"type":"Point","coordinates":[-73.90197,40.66937]}},{"type":"Feature","properties":{"nome":"Livonia Av","linhas":"L"},"geometry":{"type":"Point","coordinates":[-73.90057,40.66404]}},{"type":"Feature","properties":{"nome":"New Lots Av","linhas":"L"},"geometry":{"type":"Point","coordinates":[-73.89923,40.65873]}},{"type":"Feature","properties":{"nome":"East 105 St","linhas":"L"},"geometry":{"type":"Point","coordinates":[-73.89948,40.65057]}},{"type":"Feature","properties":{"nome":"Canarsie-Rockaway Pkwy","linhas":"L"},"geometry":{"type":"Point","coordinates":[-73.90185,40.64665]}},{"type":"Feature","properties":{"nome":"Park Pl","linhas":"S"},"geometry":{"type":"Point","coordinates":[-73.95762,40.67477]}},{"type":"Feature","properties":{"nome":"Inwood-207 St","linhas":"A"},"geometry":{"type":"Point","coordinates":[-73.9199,40.86807]}},{"type":"Feature","properties":{"nome":"Dyckman St","linhas":"A"},"geometry":{"type":"Point","coordinates":[-73.92727,40.86549]}},{"type":"Feature","properties":{"nome":"190 St","linhas":"A"},"geometry":{"type":"Point","coordinates":[-73.93418,40.85902]}},{"type":"Feature","properties":{"nome":"181 St","linhas":"A"},"geometry":{"type":"Point","coordinates":[-73.93797,40.85169]}},{"type":"Feature","properties":{"nome":"175 St","linhas":"A"},"geometry":{"type":"Point","coordinates":[-73.9397,40.84739]}},{"type":"Feature","properties":{"nome":"163 St-Amsterdam Av","linhas":"C"},"geometry":{"type":"Point","coordinates":[-73.93989,40.83601]}},{"type":"Feature","properties":{"nome":"155 St","linhas":"C"},"geometry":{"type":"Point","coordinates":[-73.94151,40.83052]}},{"type":"Feature","properties":{"nome":"145 St","linhas":"A B C D"},"geometry":{"type":"Point","coordinates":[-73.94422,40.82478]}},{"type":"Feature","properties":{"nome":"135 St","linhas":"B C"},"geometry":{"type":"Point","coordinates":[-73.94765,40.81789]}},{"type":"Feature","properties":{"nome":"125 St","linhas":"A B C D"},"geometry":{"type":"Point","coordinates":[-73.95234,40.81111]}},{"type":"Feature","properties":{"nome":"116 St","linhas":"B C"},"geometry":{"type":"Point","coordinates":[-73.95488,40.80508]}},{"type":"Feature","properties":{"nome":"Cathedral Pkwy (110 St)","linhas":"B C"},"geometry":{"type":"Point","coordinates":[-73.95816,40.8006]}},{"type":"Feature","properties":{"nome":"103 St","linhas":"B C"},"geometry":{"type":"Point","coordinates":[-73.96145,40.79609]}},{"type":"Feature","properties":{"nome":"96 St","linhas":"B C"},"geometry":{"type":"Point","coordinates":[-73.9647,40.79164]}},{"type":"Feature","properties":{"nome":"86 St","linhas":"B C"},"geometry":{"type":"Point","coordinates":[-73.96892,40.78587]}},{"type":"Feature","properties":{"nome":"81 St-Museum of Natural History","linhas":"B C"},"geometry":{"type":"Point","coordinates":[-73.97214,40.78143]}},{"type":"Feature","properties":{"nome":"72 St","linhas":"B C"},"geometry":{"type":"Point","coordinates":[-73.97641,40.77559]}},{"type":"Feature","properties":{"nome":"50 St","linhas":"C E"},"geometry":{"type":"Point","coordinates":[-73.98598,40.76246]}},{"type":"Feature","properties":{"nome":"34 St-Penn Station","linhas":"A C E"},"geometry":{"type":"Point","coordinates":[-73.99339,40.75229]}},{"type":"Feature","properties":{"nome":"23 St","linhas":"C E"},"geometry":{"type":"Point","coordinates":[-73.99804,40.74591]}},{"type":"Feature","properties":{"nome":"W 4 St-Wash Sq","linhas":"A B C D E F M"},"geometry":{"type":"Point","coordinates":[-74.0005,40.73234]}},{"type":"Feature","properties":{"nome":"Spring St","linhas":"C E"},"geometry":{"type":"Point","coordinates":[-74.00374,40.72623]}},{"type":"Feature","properties":{"nome":"Canal St","linhas":"A C E"},"geometry":{"type":"Point","coordinates":[-74.00523,40.72082]}},{"type":"Feature","properties":{"nome":"High St","linhas":"A C"},"geometry":{"type":"Point","coordinates":[-73.99053,40.69934]}},{"type":"Feature","properties":{"nome":"Hoyt-Schermerhorn Sts","linhas":"A C G"},"geometry":{"type":"Point","coordinates":[-73.985,40.68848]}},{"type":"Feature","properties":{"nome":"Lafayette Av","linhas":"C"},"geometry":{"type":"Point","coordinates":[-73.97395,40.68611]}},{"type":"Feature","properties":{"nome":"Clinton-Washington Avs","linhas":"C"},"geometry":{"type":"Point","coordinates":[-73.96584,40.68326]}},{"type":"Feature","properties":{"nome":"Nostrand Av","linhas":"A C"},"geometry":{"type":"Point","coordinates":[-73.95043,40.68044]}},{"type":"Feature","properties":{"nome":"Kingston-Throop Avs","linhas":"C"},"geometry":{"type":"Point","coordinates":[-73.94086,40.67992]}},{"type":"Feature","properties":{"nome":"Utica Av","linhas":"A C"},"geometry":{"type":"Point","coordinates":[-73.93073,40.67936]}},{"type":"Feature","properties":{"nome":"Ralph Av","linhas":"C"},"geometry":{"type":"Point","coordinates":[-73.92079,40.67882]}},{"type":"Feature","properties":{"nome":"Rockaway Av","linhas":"C"},"geometry":{"type":"Point","coordinates":[-73.91195,40.67834]}},{"type":"Feature","properties":{"nome":"Liberty Av","linhas":"C"},"geometry":{"type":"Point","coordinates":[-73.89655,40.67454]}},{"type":"Feature","properties":{"nome":"Van Siclen Av","linhas":"C"},"geometry":{"type":"Point","coordinates":[-73.89036,40.67271]}},{"type":"Feature","properties":{"nome":"Shepherd Av","linhas":"C"},"geometry":{"type":"Point","coordinates":[-73.88075,40.67413]}},{"type":"Feature","properties":{"nome":"Euclid Av","linhas":"A C"},"geometry":{"type":"Point","coordinates":[-73.87211,40.67538]}},{"type":"Feature","properties":{"nome":"Grant Av","linhas":"A"},"geometry":{"type":"Point","coordinates":[-73.86505,40.67704]}},{"type":"Feature","properties":{"nome":"80 St","linhas":"A"},"geometry":{"type":"Point","coordinates":[-73.85899,40.67937]}},{"type":"Feature","properties":{"nome":"88 St","linhas":"A"},"geometry":{"type":"Point","coordinates":[-73.85147,40.67984]}},{"type":"Feature","properties":{"nome":"Rockaway Blvd","linhas":"A"},"geometry":{"type":"Point","coordinates":[-73.84385,40.68043]}},{"type":"Feature","properties":{"nome":"104 St","linhas":"A"},"geometry":{"type":"Point","coordinates":[-73.83768,40.68171]}},{"type":"Feature","properties":{"nome":"111 St","linhas":"A"},"geometry":{"type":"Point","coordinates":[-73.83216,40.68433]}},{"type":"Feature","properties":{"nome":"Ozone Park-Lefferts Blvd","linhas":"A"},"geometry":{"type":"Point","coordinates":[-73.8258,40.68595]}},{"type":"Feature","properties":{"nome":"Aqueduct Racetrack","linhas":"A"},"geometry":{"type":"Point","coordinates":[-73.83592,40.6721]}},{"type":"Feature","properties":{"nome":"Aqueduct-N Conduit Av","linhas":"A"},"geometry":{"type":"Point","coordinates":[-73.83406,40.66823]}},{"type":"Feature","properties":{"nome":"Howard Beach-JFK Airport","linhas":"A"},"geometry":{"type":"Point","coordinates":[-73.8303,40.66048]}},{"type":"Feature","properties":{"nome":"Broad Channel","linhas":"A S"},"geometry":{"type":"Point","coordinates":[-73.81592,40.60838]}},{"type":"Feature","properties":{"nome":"Beach 90 St","linhas":"A S"},"geometry":{"type":"Point","coordinates":[-73.81364,40.58803]}},{"type":"Feature","properties":{"nome":"Beach 98 St","linhas":"A S"},"geometry":{"type":"Point","coordinates":[-73.82056,40.58531]}},{"type":"Feature","properties":{"nome":"Beach 105 St","linhas":"A S"},"geometry":{"type":"Point","coordinates":[-73.82756,40.58321]}},{"type":"Feature","properties":{"nome":"Rockaway Park-Beach 116 St","linhas":"A S"},"geometry":{"type":"Point","coordinates":[-73.83559,40.5809]}},{"type":"Feature","properties":{"nome":"Beach 67 St","linhas":"A"},"geometry":{"type":"Point","coordinates":[-73.79692,40.59093]}},{"type":"Feature","properties":{"nome":"Beach 60 St","linhas":"A"},"geometry":{"type":"Point","coordinates":[-73.78852,40.59237]}},{"type":"Feature","properties":{"nome":"Beach 44 St","linhas":"A"},"geometry":{"type":"Point","coordinates":[-73.77601,40.59294]}},{"type":"Feature","properties":{"nome":"Beach 36 St","linhas":"A"},"geometry":{"type":"Point","coordinates":[-73.76817,40.5954]}},{"type":"Feature","properties":{"nome":"Beach 25 St","linhas":"A"},"geometry":{"type":"Point","coordinates":[-73.76135,40.60007]}},{"type":"Feature","properties":{"nome":"Far Rockaway-Mott Av","linhas":"A"},"geometry":{"type":"Point","coordinates":[-73.7554,40.60399]}},{"type":"Feature","properties":{"nome":"Norwood-205 St","linhas":"D"},"geometry":{"type":"Point","coordinates":[-73.87886,40.87481]}},{"type":"Feature","properties":{"nome":"Bedford Park Blvd","linhas":"B D"},"geometry":{"type":"Point","coordinates":[-73.88714,40.87324]}},{"type":"Feature","properties":{"nome":"Kingsbridge Rd","linhas":"B D"},"geometry":{"type":"Point","coordinates":[-73.89351,40.86698]}},{"type":"Feature","properties":{"nome":"Fordham Rd","linhas":"B D"},"geometry":{"type":"Point","coordinates":[-73.89775,40.8613]}},{"type":"Feature","properties":{"nome":"182-183 Sts","linhas":"B D"},"geometry":{"type":"Point","coordinates":[-73.90074,40.85609]}},{"type":"Feature","properties":{"nome":"Tremont Av","linhas":"B D"},"geometry":{"type":"Point","coordinates":[-73.90523,40.85041]}},{"type":"Feature","properties":{"nome":"174-175 Sts","linhas":"B D"},"geometry":{"type":"Point","coordinates":[-73.91014,40.8459]}},{"type":"Feature","properties":{"nome":"170 St","linhas":"B D"},"geometry":{"type":"Point","coordinates":[-73.9134,40.83931]}},{"type":"Feature","properties":{"nome":"167 St","linhas":"B D"},"geometry":{"type":"Point","coordinates":[-73.91844,40.83377]}},{"type":"Feature","properties":{"nome":"155 St","linhas":"B D"},"geometry":{"type":"Point","coordinates":[-73.93821,40.83013]}},{"type":"Feature","properties":{"nome":"21 St-Queensbridge","linhas":"M"},"geometry":{"type":"Point","coordinates":[-73.94284,40.7542]}},{"type":"Feature","properties":{"nome":"Roosevelt Island","linhas":"M"},"geometry":{"type":"Point","coordinates":[-73.95326,40.75914]}},{"type":"Feature","properties":{"nome":"Lexington Av/63 St","linhas":"M Q"},"geometry":{"type":"Point","coordinates":[-73.96611,40.76463]}},{"type":"Feature","properties":{"nome":"57 St","linhas":"M"},"geometry":{"type":"Point","coordinates":[-73.97745,40.76397]}},{"type":"Feature","properties":{"nome":"47-50 Sts-Rockefeller Ctr","linhas":"B D F M"},"geometry":{"type":"Point","coordinates":[-73.98133,40.75866]}},{"type":"Feature","properties":{"nome":"23 St","linhas":"F M"},"geometry":{"type":"Point","coordinates":[-73.99282,40.74288]}},{"type":"Feature","properties":{"nome":"Grand St","linhas":"B D"},"geometry":{"type":"Point","coordinates":[-73.99375,40.71827]}},{"type":"Feature","properties":{"nome":"2 Av","linhas":"F"},"geometry":{"type":"Point","coordinates":[-73.98994,40.7234]}},{"type":"Feature","properties":{"nome":"East Broadway","linhas":"F"},"geometry":{"type":"Point","coordinates":[-73.99017,40.71372]}},{"type":"Feature","properties":{"nome":"York St","linhas":"F"},"geometry":{"type":"Point","coordinates":[-73.98675,40.7014]}},{"type":"Feature","properties":{"nome":"Bergen St","linhas":"F G"},"geometry":{"type":"Point","coordinates":[-73.99086,40.68615]}},{"type":"Feature","properties":{"nome":"Carroll St","linhas":"F G"},"geometry":{"type":"Point","coordinates":[-73.99505,40.6803]}},{"type":"Feature","properties":{"nome":"Smith-9 Sts","linhas":"F G"},"geometry":{"type":"Point","coordinates":[-73.99596,40.67358]}},{"type":"Feature","properties":{"nome":"7 Av","linhas":"F G"},"geometry":{"type":"Point","coordinates":[-73.98031,40.66627]}},{"type":"Feature","properties":{"nome":"15 St-Prospect Park","linhas":"F G"},"geometry":{"type":"Point","coordinates":[-73.97949,40.66036]}},{"type":"Feature","properties":{"nome":"Fort Hamilton Pkwy","linhas":"F G"},"geometry":{"type":"Point","coordinates":[-73.97578,40.65078]}},{"type":"Feature","properties":{"nome":"Church Av","linhas":"F G"},"geometry":{"type":"Point","coordinates":[-73.97968,40.64404]}},{"type":"Feature","properties":{"nome":"Ditmas Av","linhas":"F"},"geometry":{"type":"Point","coordinates":[-73.97817,40.63612]}},{"type":"Feature","properties":{"nome":"18 Av","linhas":"F"},"geometry":{"type":"Point","coordinates":[-73.97697,40.62976]}},{"type":"Feature","properties":{"nome":"Avenue I","linhas":"F"},"geometry":{"type":"Point","coordinates":[-73.97613,40.62532]}},{"type":"Feature","properties":{"nome":"Bay Pkwy","linhas":"F"},"geometry":{"type":"Point","coordinates":[-73.97526,40.62077]}},{"type":"Feature","properties":{"nome":"Avenue N","linhas":"F"},"geometry":{"type":"Point","coordinates":[-73.9742,40.61514]}},{"type":"Feature","properties":{"nome":"Avenue P","linhas":"F"},"geometry":{"type":"Point","coordinates":[-73.97302,40.60894]}},{"type":"Feature","properties":{"nome":"Kings Hwy","linhas":"F"},"geometry":{"type":"Point","coordinates":[-73.97236,40.60322]}},{"type":"Feature","properties":{"nome":"Avenue U","linhas":"F"},"geometry":{"type":"Point","coordinates":[-73.97336,40.59606]}},{"type":"Feature","properties":{"nome":"Avenue X","linhas":"F"},"geometry":{"type":"Point","coordinates":[-73.97425,40.58962]}},{"type":"Feature","properties":{"nome":"Neptune Av","linhas":"F"},"geometry":{"type":"Point","coordinates":[-73.97457,40.58101]}},{"type":"Feature","properties":{"nome":"Jamaica-179 St","linhas":"F"},"geometry":{"type":"Point","coordinates":[-73.78382,40.71265]}},{"type":"Feature","properties":{"nome":"169 St","linhas":"F"},"geometry":{"type":"Point","coordinates":[-73.7936,40.71047]}},{"type":"Feature","properties":{"nome":"Parsons Blvd","linhas":"F"},"geometry":{"type":"Point","coordinates":[-73.80333,40.70756]}},{"type":"Feature","properties":{"nome":"Sutphin Blvd","linhas":"F"},"geometry":{"type":"Point","coordinates":[-73.81071,40.70546]}},{"type":"Feature","properties":{"nome":"Briarwood","linhas":"E F"},"geometry":{"type":"Point","coordinates":[-73.82057,40.70918]}},{"type":"Feature","properties":{"nome":"Kew Gardens-Union Tpke","linhas":"E F"},"geometry":{"type":"Point","coordinates":[-73.83101,40.71444]}},{"type":"Feature","properties":{"nome":"75 Av","linhas":"E F"},"geometry":{"type":"Point","coordinates":[-73.83732,40.71833]}},{"type":"Feature","properties":{"nome":"Forest Hills-71 Av","linhas":"E F M R"},"geometry":{"type":"Point","coordinates":[-73.84452,40.72169]}},{"type":"Feature","properties":{"nome":"67 Av","linhas":"M R"},"geometry":{"type":"Point","coordinates":[-73.85272,40.72652]}},{"type":"Feature","properties":{"nome":"63 Dr-Rego Park","linhas":"M R"},"geometry":{"type":"Point","coordinates":[-73.8616,40.72985]}},{"type":"Feature","properties":{"nome":"Woodhaven Blvd","linhas":"M R"},"geometry":{"type":"Point","coordinates":[-73.86923,40.73311]}},{"type":"Feature","properties":{"nome":"Grand Av-Newtown","linhas":"M R"},"geometry":{"type":"Point","coordinates":[-73.87722,40.73701]}},{"type":"Feature","properties":{"nome":"Elmhurst Av","linhas":"M R"},"geometry":{"type":"Point","coordinates":[-73.88202,40.74245]}},{"type":"Feature","properties":{"nome":"65 St","linhas":"M R"},"geometry":{"type":"Point","coordinates":[-73.89845,40.74967]}},{"type":"Feature","properties":{"nome":"Northern Blvd","linhas":"M R"},"geometry":{"type":"Point","coordinates":[-73.90601,40.75288]}},{"type":"Feature","properties":{"nome":"46 St","linhas":"M R"},"geometry":{"type":"Point","coordinates":[-73.91333,40.75631]}},{"type":"Feature","properties":{"nome":"Steinway St","linhas":"M R"},"geometry":{"type":"Point","coordinates":[-73.92074,40.75688]}},{"type":"Feature","properties":{"nome":"36 St","linhas":"M R"},"geometry":{"type":"Point","coordinates":[-73.92878,40.75204]}},{"type":"Feature","properties":{"nome":"Queens Plaza","linhas":"E F R"},"geometry":{"type":"Point","coordinates":[-73.93724,40.74897]}},{"type":"Feature","properties":{"nome":"5 Av/53 St","linhas":"E F"},"geometry":{"type":"Point","coordinates":[-73.97522,40.76017]}},{"type":"Feature","properties":{"nome":"7 Av","linhas":"B D E"},"geometry":{"type":"Point","coordinates":[-73.98164,40.76286]}},{"type":"Feature","properties":{"nome":"Jamaica Center-Parsons/Archer","linhas":"E J Z"},"geometry":{"type":"Point","coordinates":[-73.80111,40.70215]}},{"type":"Feature","properties":{"nome":"Sutphin Blvd-Archer Av-JFK Airport","linhas":"E J Z"},"geometry":{"type":"Point","coordinates":[-73.80797,40.70049]}},{"type":"Feature","properties":{"nome":"Jamaica-Van Wyck","linhas":"E"},"geometry":{"type":"Point","coordinates":[-73.81686,40.70257]}},{"type":"Feature","properties":{"nome":"21 St","linhas":"G"},"geometry":{"type":"Point","coordinates":[-73.94972,40.74406]}},{"type":"Feature","properties":{"nome":"Greenpoint Av","linhas":"G"},"geometry":{"type":"Point","coordinates":[-73.95445,40.73135]}},{"type":"Feature","properties":{"nome":"Nassau Av","linhas":"G"},"geometry":{"type":"Point","coordinates":[-73.95128,40.72463]}},{"type":"Feature","properties":{"nome":"Broadway","linhas":"G"},"geometry":{"type":"Point","coordinates":[-73.95031,40.70609]}},{"type":"Feature","properties":{"nome":"Flushing Av","linhas":"G"},"geometry":{"type":"Point","coordinates":[-73.95023,40.70038]}},{"type":"Feature","properties":{"nome":"Myrtle-Willoughby Avs","linhas":"G"},"geometry":{"type":"Point","coordinates":[-73.94905,40.69457]}},{"type":"Feature","properties":{"nome":"Bedford-Nostrand Avs","linhas":"G"},"geometry":{"type":"Point","coordinates":[-73.95352,40.68963]}},{"type":"Feature","properties":{"nome":"Classon Av","linhas":"G"},"geometry":{"type":"Point","coordinates":[-73.96007,40.68887]}},{"type":"Feature","properties":{"nome":"Clinton-Washington Avs","linhas":"G"},"geometry":{"type":"Point","coordinates":[-73.96684,40.68809]}},{"type":"Feature","properties":{"nome":"Fulton St","linhas":"G"},"geometry":{"type":"Point","coordinates":[-73.97537,40.68712]}},{"type":"Feature","properties":{"nome":"Van Cortlandt Park-242 St","linhas":"1"},"geometry":{"type":"Point","coordinates":[-73.89858,40.88925]}},{"type":"Feature","properties":{"nome":"238 St","linhas":"1"},"geometry":{"type":"Point","coordinates":[-73.90087,40.88467]}},{"type":"Feature","properties":{"nome":"231 St","linhas":"1"},"geometry":{"type":"Point","coordinates":[-73.90483,40.87886]}},{"type":"Feature","properties":{"nome":"Marble Hill-225 St","linhas":"1"},"geometry":{"type":"Point","coordinates":[-73.90983,40.87456]}},{"type":"Feature","properties":{"nome":"215 St","linhas":"1"},"geometry":{"type":"Point","coordinates":[-73.91528,40.86944]}},{"type":"Feature","properties":{"nome":"207 St","linhas":"1"},"geometry":{"type":"Point","coordinates":[-73.91882,40.86462]}},{"type":"Feature","properties":{"nome":"Dyckman St","linhas":"1"},"geometry":{"type":"Point","coordinates":[-73.92554,40.86053]}},{"type":"Feature","properties":{"nome":"191 St","linhas":"1"},"geometry":{"type":"Point","coordinates":[-73.92941,40.85522]}},{"type":"Feature","properties":{"nome":"181 St","linhas":"1"},"geometry":{"type":"Point","coordinates":[-73.9336,40.84951]}},{"type":"Feature","properties":{"nome":"157 St","linhas":"1"},"geometry":{"type":"Point","coordinates":[-73.94489,40.83404]}},{"type":"Feature","properties":{"nome":"145 St","linhas":"1"},"geometry":{"type":"Point","coordinates":[-73.95036,40.82655]}},{"type":"Feature","properties":{"nome":"137 St-City College","linhas":"1"},"geometry":{"type":"Point","coordinates":[-73.95368,40.82201]}},{"type":"Feature","properties":{"nome":"125 St","linhas":"1"},"geometry":{"type":"Point","coordinates":[-73.95837,40.81558]}},{"type":"Feature","properties":{"nome":"116 St-Columbia University","linhas":"1"},"geometry":{"type":"Point","coordinates":[-73.96411,40.80772]}},{"type":"Feature","properties":{"nome":"Cathedral Pkwy (110 St)","linhas":"1"},"geometry":{"type":"Point","coordinates":[-73.96685,40.80397]}},{"type":"Feature","properties":{"nome":"103 St","linhas":"1"},"geometry":{"type":"Point","coordinates":[-73.96838,40.79945]}},{"type":"Feature","properties":{"nome":"96 St","linhas":"1 2 3"},"geometry":{"type":"Point","coordinates":[-73.97232,40.79392]}},{"type":"Feature","properties":{"nome":"86 St","linhas":"1"},"geometry":{"type":"Point","coordinates":[-73.97622,40.78864]}},{"type":"Feature","properties":{"nome":"79 St","linhas":"1"},"geometry":{"type":"Point","coordinates":[-73.97992,40.78393]}},{"type":"Feature","properties":{"nome":"72 St","linhas":"1 2 3"},"geometry":{"type":"Point","coordinates":[-73.98197,40.77845]}},{"type":"Feature","properties":{"nome":"66 St-Lincoln Center","linhas":"1"},"geometry":{"type":"Point","coordinates":[-73.98221,40.77344]}},{"type":"Feature","properties":{"nome":"50 St","linhas":"1"},"geometry":{"type":"Point","coordinates":[-73.98385,40.76173]}},{"type":"Feature","properties":{"nome":"34 St-Penn Station","linhas":"1 2 3"},"geometry":{"type":"Point","coordinates":[-73.99106,40.75037]}},{"type":"Feature","properties":{"nome":"28 St","linhas":"1"},"geometry":{"type":"Point","coordinates":[-73.99336,40.74721]}},{"type":"Feature","properties":{"nome":"23 St","linhas":"1"},"geometry":{"type":"Point","coordinates":[-73.99566,40.74408]}},{"type":"Feature","properties":{"nome":"18 St","linhas":"1"},"geometry":{"type":"Point","coordinates":[-73.99787,40.74104]}},{"type":"Feature","properties":{"nome":"Christopher St-Stonewall","linhas":"1"},"geometry":{"type":"Point","coordinates":[-74.00291,40.73342]}},{"type":"Feature","properties":{"nome":"Houston St","linhas":"1"},"geometry":{"type":"Point","coordinates":[-74.00537,40.72825]}},{"type":"Feature","properties":{"nome":"Canal St","linhas":"1"},"geometry":{"type":"Point","coordinates":[-74.00628,40.72285]}},{"type":"Feature","properties":{"nome":"Franklin St","linhas":"1"},"geometry":{"type":"Point","coordinates":[-74.00689,40.71932]}},{"type":"Feature","properties":{"nome":"Chambers St","linhas":"1 2 3"},"geometry":{"type":"Point","coordinates":[-74.00927,40.71548]}},{"type":"Feature","properties":{"nome":"WTC Cortlandt","linhas":"1"},"geometry":{"type":"Point","coordinates":[-74.01219,40.71184]}},{"type":"Feature","properties":{"nome":"Rector St","linhas":"1"},"geometry":{"type":"Point","coordinates":[-74.01378,40.70751]}},{"type":"Feature","properties":{"nome":"Wall St","linhas":"2 3"},"geometry":{"type":"Point","coordinates":[-74.0091,40.70682]}},{"type":"Feature","properties":{"nome":"Clark St","linhas":"2 3"},"geometry":{"type":"Point","coordinates":[-73.99309,40.69747]}},{"type":"Feature","properties":{"nome":"Hoyt St","linhas":"2 3"},"geometry":{"type":"Point","coordinates":[-73.98507,40.69055]}},{"type":"Feature","properties":{"nome":"Nevins St","linhas":"2 3 4 5"},"geometry":{"type":"Point","coordinates":[-73.98049,40.68825]}},{"type":"Feature","properties":{"nome":"Bergen St","linhas":"2 3"},"geometry":{"type":"Point","coordinates":[-73.9751,40.68083]}},{"type":"Feature","properties":{"nome":"Grand Army Plaza","linhas":"2 3"},"geometry":{"type":"Point","coordinates":[-73.97105,40.67524]}},{"type":"Feature","properties":{"nome":"Eastern Pkwy-Brooklyn Museum","linhas":"2 3"},"geometry":{"type":"Point","coordinates":[-73.96438,40.67199]}},{"type":"Feature","properties":{"nome":"Nostrand Av","linhas":"3"},"geometry":{"type":"Point","coordinates":[-73.95047,40.66985]}},{"type":"Feature","properties":{"nome":"Kingston Av","linhas":"3"},"geometry":{"type":"Point","coordinates":[-73.94216,40.6694]}},{"type":"Feature","properties":{"nome":"Crown Hts-Utica Av","linhas":"3 4"},"geometry":{"type":"Point","coordinates":[-73.93294,40.6689]}},{"type":"Feature","properties":{"nome":"Sutter Av-Rutland Rd","linhas":"3"},"geometry":{"type":"Point","coordinates":[-73.92261,40.66472]}},{"type":"Feature","properties":{"nome":"Saratoga Av","linhas":"3"},"geometry":{"type":"Point","coordinates":[-73.91633,40.66145]}},{"type":"Feature","properties":{"nome":"Rockaway Av","linhas":"3"},"geometry":{"type":"Point","coordinates":[-73.90895,40.66255]}},{"type":"Feature","properties":{"nome":"Junius St","linhas":"3"},"geometry":{"type":"Point","coordinates":[-73.90245,40.66351]}},{"type":"Feature","properties":{"nome":"Pennsylvania Av","linhas":"3"},"geometry":{"type":"Point","coordinates":[-73.8949,40.66463]}},{"type":"Feature","properties":{"nome":"Van Siclen Av","linhas":"3"},"geometry":{"type":"Point","coordinates":[-73.88939,40.66545]}},{"type":"Feature","properties":{"nome":"New Lots Av","linhas":"3"},"geometry":{"type":"Point","coordinates":[-73.88408,40.66624]}},{"type":"Feature","properties":{"nome":"President St-Medgar Evers College","linhas":"2 5"},"geometry":{"type":"Point","coordinates":[-73.95068,40.66788]}},{"type":"Feature","properties":{"nome":"Sterling St","linhas":"2 5"},"geometry":{"type":"Point","coordinates":[-73.95085,40.66274]}},{"type":"Feature","properties":{"nome":"Winthrop St","linhas":"2 5"},"geometry":{"type":"Point","coordinates":[-73.9502,40.65665]}},{"type":"Feature","properties":{"nome":"Church Av","linhas":"2 5"},"geometry":{"type":"Point","coordinates":[-73.94957,40.65084]}},{"type":"Feature","properties":{"nome":"Beverly Rd","linhas":"2 5"},"geometry":{"type":"Point","coordinates":[-73.94896,40.6451]}},{"type":"Feature","properties":{"nome":"Newkirk Av-Little Haiti","linhas":"2 5"},"geometry":{"type":"Point","coordinates":[-73.94841,40.63997]}},{"type":"Feature","properties":{"nome":"Flatbush Av-Brooklyn College","linhas":"2 5"},"geometry":{"type":"Point","coordinates":[-73.94764,40.63284]}},{"type":"Feature","properties":{"nome":"Pelham Bay Park","linhas":"6"},"geometry":{"type":"Point","coordinates":[-73.82812,40.85246]}},{"type":"Feature","properties":{"nome":"Buhre Av","linhas":"6"},"geometry":{"type":"Point","coordinates":[-73.83257,40.84681]}},{"type":"Feature","properties":{"nome":"Middletown Rd","linhas":"6"},"geometry":{"type":"Point","coordinates":[-73.83632,40.84386]}},{"type":"Feature","properties":{"nome":"Westchester Sq-E Tremont Av","linhas":"6"},"geometry":{"type":"Point","coordinates":[-73.84295,40.83989]}},{"type":"Feature","properties":{"nome":"Zerega Av","linhas":"6"},"geometry":{"type":"Point","coordinates":[-73.84704,40.83649]}},{"type":"Feature","properties":{"nome":"Castle Hill Av","linhas":"6"},"geometry":{"type":"Point","coordinates":[-73.85122,40.83425]}},{"type":"Feature","properties":{"nome":"Parkchester","linhas":"6"},"geometry":{"type":"Point","coordinates":[-73.86082,40.83323]}},{"type":"Feature","properties":{"nome":"St Lawrence Av","linhas":"6"},"geometry":{"type":"Point","coordinates":[-73.86762,40.83151]}},{"type":"Feature","properties":{"nome":"Morrison Av-Soundview","linhas":"6"},"geometry":{"type":"Point","coordinates":[-73.87452,40.82952]}},{"type":"Feature","properties":{"nome":"Elder Av","linhas":"6"},"geometry":{"type":"Point","coordinates":[-73.87916,40.82858]}},{"type":"Feature","properties":{"nome":"Whitlock Av","linhas":"6"},"geometry":{"type":"Point","coordinates":[-73.88628,40.82652]}},{"type":"Feature","properties":{"nome":"Hunts Point Av","linhas":"6"},"geometry":{"type":"Point","coordinates":[-73.89055,40.82095]}},{"type":"Feature","properties":{"nome":"Longwood Av","linhas":"6"},"geometry":{"type":"Point","coordinates":[-73.89643,40.8161]}},{"type":"Feature","properties":{"nome":"E 149 St","linhas":"6"},"geometry":{"type":"Point","coordinates":[-73.9041,40.81212]}},{"type":"Feature","properties":{"nome":"E 143 St-St Mary's St","linhas":"6"},"geometry":{"type":"Point","coordinates":[-73.90766,40.80872]}},{"type":"Feature","properties":{"nome":"Cypress Av","linhas":"6"},"geometry":{"type":"Point","coordinates":[-73.91404,40.80537]}},{"type":"Feature","properties":{"nome":"Brook Av","linhas":"6"},"geometry":{"type":"Point","coordinates":[-73.91924,40.80757]}},{"type":"Feature","properties":{"nome":"3 Av-138 St","linhas":"6"},"geometry":{"type":"Point","coordinates":[-73.92614,40.81048]}},{"type":"Feature","properties":{"nome":"Woodlawn","linhas":"4"},"geometry":{"type":"Point","coordinates":[-73.87875,40.88604]}},{"type":"Feature","properties":{"nome":"Mosholu Pkwy","linhas":"4"},"geometry":{"type":"Point","coordinates":[-73.88465,40.87975]}},{"type":"Feature","properties":{"nome":"Bedford Park Blvd-Lehman College","linhas":"4"},"geometry":{"type":"Point","coordinates":[-73.89006,40.87341]}},{"type":"Feature","properties":{"nome":"Kingsbridge Rd","linhas":"4"},"geometry":{"type":"Point","coordinates":[-73.89717,40.86776]}},{"type":"Feature","properties":{"nome":"Fordham Rd","linhas":"4"},"geometry":{"type":"Point","coordinates":[-73.90103,40.8628]}},{"type":"Feature","properties":{"nome":"183 St","linhas":"4"},"geometry":{"type":"Point","coordinates":[-73.90388,40.85841]}},{"type":"Feature","properties":{"nome":"Burnside Av","linhas":"4"},"geometry":{"type":"Point","coordinates":[-73.90768,40.85345]}},{"type":"Feature","properties":{"nome":"176 St","linhas":"4"},"geometry":{"type":"Point","coordinates":[-73.91179,40.84848]}},{"type":"Feature","properties":{"nome":"Mt Eden Av","linhas":"4"},"geometry":{"type":"Point","coordinates":[-73.91469,40.84443]}},{"type":"Feature","properties":{"nome":"170 St","linhas":"4"},"geometry":{"type":"Point","coordinates":[-73.91779,40.84007]}},{"type":"Feature","properties":{"nome":"167 St","linhas":"4"},"geometry":{"type":"Point","coordinates":[-73.9214,40.83554]}},{"type":"Feature","properties":{"nome":"138 St-Grand Concourse","linhas":"4 5"},"geometry":{"type":"Point","coordinates":[-73.92985,40.81322]}},{"type":"Feature","properties":{"nome":"125 St","linhas":"4 5 6"},"geometry":{"type":"Point","coordinates":[-73.93759,40.80414]}},{"type":"Feature","properties":{"nome":"116 St","linhas":"6"},"geometry":{"type":"Point","coordinates":[-73.94162,40.79863]}},{"type":"Feature","properties":{"nome":"110 St","linhas":"6"},"geometry":{"type":"Point","coordinates":[-73.94425,40.79502]}},{"type":"Feature","properties":{"nome":"103 St","linhas":"6"},"geometry":{"type":"Point","coordinates":[-73.94748,40.7906]}},{"type":"Feature","properties":{"nome":"96 St","linhas":"6"},"geometry":{"type":"Point","coordinates":[-73.95107,40.78567]}},{"type":"Feature","properties":{"nome":"86 St","linhas":"4 5 6"},"geometry":{"type":"Point","coordinates":[-73.95559,40.77949]}},{"type":"Feature","properties":{"nome":"77 St","linhas":"6"},"geometry":{"type":"Point","coordinates":[-73.95987,40.77362]}},{"type":"Feature","properties":{"nome":"68 St-Hunter College","linhas":"6"},"geometry":{"type":"Point","coordinates":[-73.96387,40.76814]}},{"type":"Feature","properties":{"nome":"33 St","linhas":"6"},"geometry":{"type":"Point","coordinates":[-73.98208,40.74608]}},{"type":"Feature","properties":{"nome":"28 St","linhas":"6"},"geometry":{"type":"Point","coordinates":[-73.98426,40.74307]}},{"type":"Feature","properties":{"nome":"23 St-Baruch College","linhas":"6"},"geometry":{"type":"Point","coordinates":[-73.9866,40.73986]}},{"type":"Feature","properties":{"nome":"Astor Pl","linhas":"6"},"geometry":{"type":"Point","coordinates":[-73.99107,40.73005]}},{"type":"Feature","properties":{"nome":"Spring St","linhas":"6"},"geometry":{"type":"Point","coordinates":[-73.99714,40.7223]}},{"type":"Feature","properties":{"nome":"Wall St","linhas":"4 5"},"geometry":{"type":"Point","coordinates":[-74.01186,40.70756]}},{"type":"Feature","properties":{"nome":"Bowling Green","linhas":"4 5"},"geometry":{"type":"Point","coordinates":[-74.01407,40.70482]}},{"type":"Feature","properties":{"nome":"Wakefield-241 St","linhas":"2"},"geometry":{"type":"Point","coordinates":[-73.85062,40.90313]}},{"type":"Feature","properties":{"nome":"Nereid Av","linhas":"2 5"},"geometry":{"type":"Point","coordinates":[-73.85438,40.89838]}},{"type":"Feature","properties":{"nome":"233 St","linhas":"2 5"},"geometry":{"type":"Point","coordinates":[-73.85747,40.89319]}},{"type":"Feature","properties":{"nome":"225 St","linhas":"2 5"},"geometry":{"type":"Point","coordinates":[-73.86034,40.88802]}},{"type":"Feature","properties":{"nome":"219 St","linhas":"2 5"},"geometry":{"type":"Point","coordinates":[-73.86263,40.8839]}},{"type":"Feature","properties":{"nome":"Gun Hill Rd","linhas":"2 5"},"geometry":{"type":"Point","coordinates":[-73.86626,40.87785]}},{"type":"Feature","properties":{"nome":"Burke Av","linhas":"2 5"},"geometry":{"type":"Point","coordinates":[-73.86716,40.87136]}},{"type":"Feature","properties":{"nome":"Allerton Av","linhas":"2 5"},"geometry":{"type":"Point","coordinates":[-73.86735,40.86546]}},{"type":"Feature","properties":{"nome":"Pelham Pkwy","linhas":"2 5"},"geometry":{"type":"Point","coordinates":[-73.86762,40.85719]}},{"type":"Feature","properties":{"nome":"Bronx Park East","linhas":"2 5"},"geometry":{"type":"Point","coordinates":[-73.86846,40.84883]}},{"type":"Feature","properties":{"nome":"E 180 St","linhas":"2 5"},"geometry":{"type":"Point","coordinates":[-73.87349,40.84189]}},{"type":"Feature","properties":{"nome":"West Farms Sq-E Tremont Av","linhas":"2 5"},"geometry":{"type":"Point","coordinates":[-73.88005,40.84029]}},{"type":"Feature","properties":{"nome":"174 St","linhas":"2 5"},"geometry":{"type":"Point","coordinates":[-73.88773,40.83729]}},{"type":"Feature","properties":{"nome":"Freeman St","linhas":"2 5"},"geometry":{"type":"Point","coordinates":[-73.89186,40.82999]}},{"type":"Feature","properties":{"nome":"Simpson St","linhas":"2 5"},"geometry":{"type":"Point","coordinates":[-73.89306,40.82407]}},{"type":"Feature","properties":{"nome":"Intervale Av","linhas":"2 5"},"geometry":{"type":"Point","coordinates":[-73.89674,40.82218]}},{"type":"Feature","properties":{"nome":"Prospect Av","linhas":"2 5"},"geometry":{"type":"Point","coordinates":[-73.90177,40.81958]}},{"type":"Feature","properties":{"nome":"Jackson Av","linhas":"2 5"},"geometry":{"type":"Point","coordinates":[-73.90781,40.81649]}},{"type":"Feature","properties":{"nome":"3 Av-149 St","linhas":"2 5"},"geometry":{"type":"Point","coordinates":[-73.91776,40.81611]}},{"type":"Feature","properties":{"nome":"Harlem-148 St","linhas":"3"},"geometry":{"type":"Point","coordinates":[-73.93647,40.82388]}},{"type":"Feature","properties":{"nome":"145 St","linhas":"3"},"geometry":{"type":"Point","coordinates":[-73.93624,40.82042]}},{"type":"Feature","properties":{"nome":"135 St","linhas":"2 3"},"geometry":{"type":"Point","coordinates":[-73.94077,40.81423]}},{"type":"Feature","properties":{"nome":"125 St","linhas":"2 3"},"geometry":{"type":"Point","coordinates":[-73.94549,40.80775]}},{"type":"Feature","properties":{"nome":"116 St","linhas":"2 3"},"geometry":{"type":"Point","coordinates":[-73.94962,40.8021]}},{"type":"Feature","properties":{"nome":"110 St-Malcolm X Plaza","linhas":"2 3"},"geometry":{"type":"Point","coordinates":[-73.95182,40.79908]}},{"type":"Feature","properties":{"nome":"Eastchester-Dyre Av","linhas":"5"},"geometry":{"type":"Point","coordinates":[-73.83083,40.8883]}},{"type":"Feature","properties":{"nome":"Baychester Av","linhas":"5"},"geometry":{"type":"Point","coordinates":[-73.83859,40.87866]}},{"type":"Feature","properties":{"nome":"Gun Hill Rd","linhas":"5"},"geometry":{"type":"Point","coordinates":[-73.84638,40.86953]}},{"type":"Feature","properties":{"nome":"Pelham Pkwy","linhas":"5"},"geometry":{"type":"Point","coordinates":[-73.85536,40.85898]}},{"type":"Feature","properties":{"nome":"Morris Park","linhas":"5"},"geometry":{"type":"Point","coordinates":[-73.8605,40.85436]}},{"type":"Feature","properties":{"nome":"Flushing-Main St","linhas":"7"},"geometry":{"type":"Point","coordinates":[-73.83003,40.7596]}},{"type":"Feature","properties":{"nome":"Mets-Willets Point","linhas":"7"},"geometry":{"type":"Point","coordinates":[-73.84562,40.75462]}},{"type":"Feature","properties":{"nome":"111 St","linhas":"7"},"geometry":{"type":"Point","coordinates":[-73.85533,40.75173]}},{"type":"Feature","properties":{"nome":"103 St-Corona Plaza","linhas":"7"},"geometry":{"type":"Point","coordinates":[-73.8627,40.74986]}},{"type":"Feature","properties":{"nome":"Junction Blvd","linhas":"7"},"geometry":{"type":"Point","coordinates":[-73.86953,40.74914]}},{"type":"Feature","properties":{"nome":"90 St-Elmhurst Av","linhas":"7"},"geometry":{"type":"Point","coordinates":[-73.87661,40.74841]}},{"type":"Feature","properties":{"nome":"82 St-Jackson Hts","linhas":"7"},"geometry":{"type":"Point","coordinates":[-73.8837,40.74766]}},{"type":"Feature","properties":{"nome":"69 St","linhas":"7"},"geometry":{"type":"Point","coordinates":[-73.8964,40.74632]}},{"type":"Feature","properties":{"nome":"61 St-Woodside","linhas":"7"},"geometry":{"type":"Point","coordinates":[-73.90298,40.74563]}},{"type":"Feature","properties":{"nome":"52 St","linhas":"7"},"geometry":{"type":"Point","coordinates":[-73.91255,40.74415]}},{"type":"Feature","properties":{"nome":"46 St-Bliss St","linhas":"7"},"geometry":{"type":"Point","coordinates":[-73.91844,40.74313]}},{"type":"Feature","properties":{"nome":"40 St-Lowery St","linhas":"7"},"geometry":{"type":"Point","coordinates":[-73.92402,40.74378]}},{"type":"Feature","properties":{"nome":"33 St-Rawson St","linhas":"7"},"geometry":{"type":"Point","coordinates":[-73.931,40.74459]}},{"type":"Feature","properties":{"nome":"Queensboro Plaza","linhas":"7 N W"},"geometry":{"type":"Point","coordinates":[-73.9402,40.75058]}},{"type":"Feature","properties":{"nome":"Hunters Point Av","linhas":"7"},"geometry":{"type":"Point","coordinates":[-73.94892,40.74222]}},{"type":"Feature","properties":{"nome":"Vernon Blvd-Jackson Av","linhas":"7"},"geometry":{"type":"Point","coordinates":[-73.95358,40.74263]}},{"type":"Feature","properties":{"nome":"34 St-Hudson Yards","linhas":"7"},"geometry":{"type":"Point","coordinates":[-74.00191,40.75588]}},{"type":"Feature","properties":{"nome":"96 St","linhas":"Q"},"geometry":{"type":"Point","coordinates":[-73.94715,40.78432]}},{"type":"Feature","properties":{"nome":"86 St","linhas":"Q"},"geometry":{"type":"Point","coordinates":[-73.95179,40.77789]}},{"type":"Feature","properties":{"nome":"72 St","linhas":"Q"},"geometry":{"type":"Point","coordinates":[-73.95842,40.7688]}},{"type":"Feature","properties":{"nome":"St George","linhas":"SIR"},"geometry":{"type":"Point","coordinates":[-74.07364,40.64375]}},{"type":"Feature","properties":{"nome":"Tompkinsville","linhas":"SIR"},"geometry":{"type":"Point","coordinates":[-74.07483,40.63695]}},{"type":"Feature","properties":{"nome":"Stapleton","linhas":"SIR"},"geometry":{"type":"Point","coordinates":[-74.07516,40.62792]}},{"type":"Feature","properties":{"nome":"Clifton","linhas":"SIR"},"geometry":{"type":"Point","coordinates":[-74.0714,40.62132]}},{"type":"Feature","properties":{"nome":"Grasmere","linhas":"SIR"},"geometry":{"type":"Point","coordinates":[-74.08409,40.60312]}},{"type":"Feature","properties":{"nome":"Old Town","linhas":"SIR"},"geometry":{"type":"Point","coordinates":[-74.08737,40.59661]}},{"type":"Feature","properties":{"nome":"Dongan Hills","linhas":"SIR"},"geometry":{"type":"Point","coordinates":[-74.09609,40.58885]}},{"type":"Feature","properties":{"nome":"Jefferson Av","linhas":"SIR"},"geometry":{"type":"Point","coordinates":[-74.10334,40.58359]}},{"type":"Feature","properties":{"nome":"Grant City","linhas":"SIR"},"geometry":{"type":"Point","coordinates":[-74.1097,40.57896]}},{"type":"Feature","properties":{"nome":"New Dorp","linhas":"SIR"},"geometry":{"type":"Point","coordinates":[-74.11721,40.57348]}},{"type":"Feature","properties":{"nome":"Oakwood Heights","linhas":"SIR"},"geometry":{"type":"Point","coordinates":[-74.12632,40.56511]}},{"type":"Feature","properties":{"nome":"Bay Terrace","linhas":"SIR"},"geometry":{"type":"Point","coordinates":[-74.13691,40.5564]}},{"type":"Feature","properties":{"nome":"Great Kills","linhas":"SIR"},"geometry":{"type":"Point","coordinates":[-74.1514,40.55123]}},{"type":"Feature","properties":{"nome":"Eltingville","linhas":"SIR"},"geometry":{"type":"Point","coordinates":[-74.16457,40.5446]}},{"type":"Feature","properties":{"nome":"Annadale","linhas":"SIR"},"geometry":{"type":"Point","coordinates":[-74.17822,40.54046]}},{"type":"Feature","properties":{"nome":"Huguenot","linhas":"SIR"},"geometry":{"type":"Point","coordinates":[-74.19179,40.53367]}},{"type":"Feature","properties":{"nome":"Prince's Bay","linhas":"SIR"},"geometry":{"type":"Point","coordinates":[-74.20006,40.52551]}},{"type":"Feature","properties":{"nome":"Pleasant Plains","linhas":"SIR"},"geometry":{"type":"Point","coordinates":[-74.21785,40.52241]}},{"type":"Feature","properties":{"nome":"Richmond Valley","linhas":"SIR"},"geometry":{"type":"Point","coordinates":[-74.22914,40.51963]}},{"type":"Feature","properties":{"nome":"Tottenville","linhas":"SIR"},"geometry":{"type":"Point","coordinates":[-74.25196,40.51276]}},{"type":"Feature","properties":{"nome":"Arthur Kill","linhas":"SIR"},"geometry":{"type":"Point","coordinates":[-74.2421,40.51658]}},{"type":"Feature","properties":{"nome":"6 Av","linhas":"1 2 3 F L M"},"geometry":{"type":"Point","coordinates":[-73.99773,40.7378]}},{"type":"Feature","properties":{"nome":"14 St-Union Sq","linhas":"4 5 6 L N Q R W"},"geometry":{"type":"Point","coordinates":[-73.99042,40.73507]}},{"type":"Feature","properties":{"nome":"149 St-Hostos","linhas":"2 4 5"},"geometry":{"type":"Point","coordinates":[-73.92703,40.81839]}},{"type":"Feature","properties":{"nome":"161 St-Yankee Stadium","linhas":"4 B D"},"geometry":{"type":"Point","coordinates":[-73.92574,40.82795]}},{"type":"Feature","properties":{"nome":"168 St","linhas":"1 A C"},"geometry":{"type":"Point","coordinates":[-73.93985,40.84064]}},{"type":"Feature","properties":{"nome":"Court Sq-23 St","linhas":"7 E F G"},"geometry":{"type":"Point","coordinates":[-73.94503,40.74714]}},{"type":"Feature","properties":{"nome":"34 St-Herald Sq","linhas":"B D F M N Q R W"},"geometry":{"type":"Point","coordinates":[-73.98789,40.74964]}},{"type":"Feature","properties":{"nome":"4 Av-9 St","linhas":"F G R"},"geometry":{"type":"Point","coordinates":[-73.98904,40.67056]}},{"type":"Feature","properties":{"nome":"42 St-Bryant Pk","linhas":"7 B D F M"},"geometry":{"type":"Point","coordinates":[-73.98327,40.75402]}},{"type":"Feature","properties":{"nome":"Grand Central-42 St","linhas":"4 5 6 7 S"},"geometry":{"type":"Point","coordinates":[-73.97736,40.75199]}},{"type":"Feature","properties":{"nome":"Times Sq-42 St","linhas":"1 2 3 7 A C E N Q R S W"},"geometry":{"type":"Point","coordinates":[-73.98758,40.75575]}},{"type":"Feature","properties":{"nome":"Lexington Av/53 St","linhas":"6 E F"},"geometry":{"type":"Point","coordinates":[-73.97049,40.75733]}},{"type":"Feature","properties":{"nome":"Lexington Av/59 St","linhas":"4 5 6 N R W"},"geometry":{"type":"Point","coordinates":[-73.96761,40.76259]}},{"type":"Feature","properties":{"nome":"59 St-Columbus Circle","linhas":"1 A B C D"},"geometry":{"type":"Point","coordinates":[-73.98183,40.76827]}},{"type":"Feature","properties":{"nome":"62 St","linhas":"D N"},"geometry":{"type":"Point","coordinates":[-73.99662,40.62566]}},{"type":"Feature","properties":{"nome":"Jackson Hts-Roosevelt Av","linhas":"7 E F M R"},"geometry":{"type":"Point","coordinates":[-73.89137,40.74675]}},{"type":"Feature","properties":{"nome":"Atlantic Av-Barclays Ctr","linhas":"2 3 4 5 B D N Q R"},"geometry":{"type":"Point","coordinates":[-73.97779,40.68416]}},{"type":"Feature","properties":{"nome":"8 Av","linhas":"A C E L"},"geometry":{"type":"Point","coordinates":[-74.00213,40.74034]}},{"type":"Feature","properties":{"nome":"Broadway-Lafayette St","linhas":"6 B D F M"},"geometry":{"type":"Point","coordinates":[-73.99543,40.72561]}},{"type":"Feature","properties":{"nome":"Court St","linhas":"2 3 4 5 R"},"geometry":{"type":"Point","coordinates":[-73.99064,40.69324]}},{"type":"Feature","properties":{"nome":"Broadway Junction","linhas":"A C J L Z"},"geometry":{"type":"Point","coordinates":[-73.90436,40.6789]}},{"type":"Feature","properties":{"nome":"Chambers St","linhas":"4 5 6 J Z"},"geometry":{"type":"Point","coordinates":[-74.00377,40.71315]}},{"type":"Feature","properties":{"nome":"Canal St","linhas":"6 J N Q R W Z"},"geometry":{"type":"Point","coordinates":[-74.00058,40.7187]}},{"type":"Feature","properties":{"nome":"Cortlandt St","linhas":"2 3 A C E R W"},"geometry":{"type":"Point","coordinates":[-74.00955,40.7126]}},{"type":"Feature","properties":{"nome":"Delancey St-Essex St","linhas":"F J M Z"},"geometry":{"type":"Point","coordinates":[-73.98778,40.71846]}},{"type":"Feature","properties":{"nome":"Botanic Garden","linhas":"2 3 4 5 S"},"geometry":{"type":"Point","coordinates":[-73.95869,40.67051]}},{"type":"Feature","properties":{"nome":"Franklin Av","linhas":"C S"},"geometry":{"type":"Point","coordinates":[-73.95634,40.68099]}},{"type":"Feature","properties":{"nome":"Fulton St","linhas":"2 3 4 5 A C J Z"},"geometry":{"type":"Point","coordinates":[-74.00784,40.71009]}},{"type":"Feature","properties":{"nome":"Lorimer St","linhas":"G L"},"geometry":{"type":"Point","coordinates":[-73.95085,40.71343]}},{"type":"Feature","properties":{"nome":"Myrtle-Wyckoff Avs","linhas":"L M"},"geometry":{"type":"Point","coordinates":[-73.91199,40.69962]}},{"type":"Feature","properties":{"nome":"Whitehall St-South Ferry","linhas":"1 R W"},"geometry":{"type":"Point","coordinates":[-74.01333,40.70258]}},{"type":"Feature","properties":{"nome":"Jay St-MetroTech","linhas":"A C F R"},"geometry":{"type":"Point","coordinates":[-73.98664,40.69226]}}]}